{
    "links": {
        "self": "http://www.neowsapp.com/rest/v1/neo/3653254?api_key=iIulBulltgU6a56xZRHN4H3l9WmuAYTsLGpBGhQ2"
    },
    "id": "3653254",
    "neo_reference_id": "3653254",
    "name": "(2013 UM5)",
    "designation": "2013 UM5",
    "nasa_jpl_url": "http://ssd.jpl.nasa.gov/sbdb.cgi?sstr=3653254",
    "absolute_magnitude_h": 23.9,
    "estimated_diameter": {
        "kilometers": {
            "estimated_diameter_min": 0.04411182,
            "estimated_diameter_max": 0.0986370281
        },
        "meters": {
            "estimated_diameter_min": 44.1118199997,
            "estimated_diameter_max": 98.6370281305
        },
        "miles": {
            "estimated_diameter_min": 0.0274098057,
            "estimated_diameter_max": 0.0612901888
        },
        "feet": {
            "estimated_diameter_min": 144.7238235278,
            "estimated_diameter_max": 323.6123073718
        }
    },
    "is_potentially_hazardous_asteroid": false,
    "close_approach_data": [
        {
            "close_approach_date": "2013-11-05",
            "close_approach_date_full": "2013-Nov-05 10:14",
            "epoch_date_close_approach": 1383646440000,
            "relative_velocity": {
                "kilometers_per_second": "19.5074701675",
                "kilometers_per_hour": "70226.8926030724",
                "miles_per_hour": "43636.2600177257"
            },
            "miss_distance": {
                "astronomical": "0.0536019709",
                "lunar": "20.8511666801",
                "kilometers": "8018740.674441983",
                "miles": "4982614.4081980454"
            },
            "orbiting_body": "Earth"
        }
    ],
    "orbital_data": {
        "orbit_id": "11",
        "orbit_determination_date": "2019-12-04 07:13:14",
        "first_observation_date": "2013-10-27",
        "last_observation_date": "2013-11-04",
        "data_arc_in_days": 8,
        "observations_used": 43,
        "orbit_uncertainty": "8",
        "minimum_orbit_intersection": ".042092",
        "jupiter_tisserand_invariant": "4.644",
        "epoch_osculation": "2456594.5",
        "eccentricity": ".6298197530811754",
        "semi_major_axis": "1.344572191241365",
        "inclination": "11.54760183107393",
        "ascending_node_longitude": "29.99509286767916",
        "orbital_period": "569.4749355468568",
        "perihelion_distance": ".4977340657539134",
        "perihelion_argument": "119.3995991851211",
        "aphelion_distance": "2.191410316728816",
        "perihelion_time": "2456654.869630479149",
        "mean_anomaly": "321.8366575666341",
        "mean_motion": ".6321612726542535",
        "equinox": "J2000",
        "orbit_class": {
            "orbit_class_type": "APO",
            "orbit_class_description": "Near-Earth asteroid orbits which cross the Earth’s orbit similar to that of 1862 Apollo",
            "orbit_class_range": "a (semi-major axis) > 1.0 AU; q (perihelion) < 1.017 AU"
        }
    },
    "is_sentry_object": false
}